CCSDS_OMM_VERS = 2.0
CREATION_DATE  = 
ORIGINATOR     = 

OBJECT_NAME    = STARLINK-36550
OBJECT_ID      = 2026-012C
CENTER_NAME    = EARTH
REF_FRAME      = TEME
TIME_SYSTEM    = UTC
MEAN_ELEMENT_THEORY = SGP/SGP4

EPOCH          = 2026-01-31T12:00:01.999296
MEAN_MOTION    = 15.89137306
ECCENTRICITY   = .0001137
INCLINATION    = 42.9956
RA_OF_ASC_NODE = 169.4979
ARG_OF_PERICENTER = 278.2426
MEAN_ANOMALY   = 180.3674

EPHEMERIS_TYPE = 0
CLASSIFICATION_TYPE = U
NORAD_CAT_ID   = 67495
ELEMENT_SET_NO = 999
REV_AT_EPOCH   = 308
BSTAR          = -.62803E-2
MEAN_MOTION_DOT = -.1636073E-1
MEAN_MOTION_DDOT = 0

CCSDS_OMM_VERS = 2.0
CREATION_DATE  = 
ORIGINATOR     = 

OBJECT_NAME    = STARLINK-36534
OBJECT_ID      = 2026-012D
CENTER_NAME    = EARTH
REF_FRAME      = TEME
TIME_SYSTEM    = UTC
MEAN_ELEMENT_THEORY = SGP/SGP4

EPOCH          = 2026-01-31T12:00:01.999296
MEAN_MOTION    = 15.89335734
ECCENTRICITY   = .0001196
INCLINATION    = 42.9960
RA_OF_ASC_NODE = 169.4808
ARG_OF_PERICENTER = 278.3259
MEAN_ANOMALY   = 187.0134

EPHEMERIS_TYPE = 0
CLASSIFICATION_TYPE = U
NORAD_CAT_ID   = 67496
ELEMENT_SET_NO = 999
REV_AT_EPOCH   = 302
BSTAR          = -.61913E-2
MEAN_MOTION_DOT = -.1630263E-1
MEAN_MOTION_DDOT = 0

CCSDS_OMM_VERS = 2.0
CREATION_DATE  = 
ORIGINATOR     = 

OBJECT_NAME    = STARLINK-36555
OBJECT_ID      = 2026-012E
CENTER_NAME    = EARTH
REF_FRAME      = TEME
TIME_SYSTEM    = UTC
MEAN_ELEMENT_THEORY = SGP/SGP4

EPOCH          = 2026-01-31T12:00:01.999296
MEAN_MOTION    = 15.89231592
ECCENTRICITY   = .0001392
INCLINATION    = 42.9960
RA_OF_ASC_NODE = 169.4904
ARG_OF_PERICENTER = 283.3924
MEAN_ANOMALY   = 178.2172

EPHEMERIS_TYPE = 0
CLASSIFICATION_TYPE = U
NORAD_CAT_ID   = 67497
ELEMENT_SET_NO = 999
REV_AT_EPOCH   = 308
BSTAR          = -.62906E-2
MEAN_MOTION_DOT = -.1645544E-1
MEAN_MOTION_DDOT = 0

CCSDS_OMM_VERS = 2.0
CREATION_DATE  = 
ORIGINATOR     = 

OBJECT_NAME    = STARLINK-36081
OBJECT_ID      = 2026-012F
CENTER_NAME    = EARTH
REF_FRAME      = TEME
TIME_SYSTEM    = UTC
MEAN_ELEMENT_THEORY = SGP/SGP4

EPOCH          = 2026-01-31T12:00:01.999296
MEAN_MOTION    = 15.89482491
ECCENTRICITY   = .0001392
INCLINATION    = 42.9960
RA_OF_ASC_NODE = 169.4691
ARG_OF_PERICENTER = 281.3156
MEAN_ANOMALY   = 188.6707

EPHEMERIS_TYPE = 0
CLASSIFICATION_TYPE = U
NORAD_CAT_ID   = 67498
ELEMENT_SET_NO = 999
REV_AT_EPOCH   = 302
BSTAR          = -.61715E-2
MEAN_MOTION_DOT = -.1636614E-1
MEAN_MOTION_DDOT = 0

CCSDS_OMM_VERS = 2.0
CREATION_DATE  = 
ORIGINATOR     = 

OBJECT_NAME    = STARLINK-36558
OBJECT_ID      = 2026-012G
CENTER_NAME    = EARTH
REF_FRAME      = TEME
TIME_SYSTEM    = UTC
MEAN_ELEMENT_THEORY = SGP/SGP4

EPOCH          = 2026-01-31T12:00:01.999296
MEAN_MOTION    = 15.89542153
ECCENTRICITY   = .000123
INCLINATION    = 42.9960
RA_OF_ASC_NODE = 169.4632
ARG_OF_PERICENTER = 281.8742
MEAN_ANOMALY   = 190.4931

EPHEMERIS_TYPE = 0
CLASSIFICATION_TYPE = U
NORAD_CAT_ID   = 67499
ELEMENT_SET_NO = 999
REV_AT_EPOCH   = 308
BSTAR          = -.60957E-2
MEAN_MOTION_DOT = -.1623226E-1
MEAN_MOTION_DDOT = 0

CCSDS_OMM_VERS = 2.0
CREATION_DATE  = 
ORIGINATOR     = 

OBJECT_NAME    = STARLINK-36557
OBJECT_ID      = 2026-012H
CENTER_NAME    = EARTH
REF_FRAME      = TEME
TIME_SYSTEM    = UTC
MEAN_ELEMENT_THEORY = SGP/SGP4

EPOCH          = 2026-01-31T12:00:01.999296
MEAN_MOTION    = 15.89664648
ECCENTRICITY   = .0001203
INCLINATION    = 42.9960
RA_OF_ASC_NODE = 169.4524
ARG_OF_PERICENTER = 280.3758
MEAN_ANOMALY   = 195.8702

EPHEMERIS_TYPE = 0
CLASSIFICATION_TYPE = U
NORAD_CAT_ID   = 67500
ELEMENT_SET_NO = 999
REV_AT_EPOCH   = 308
BSTAR          = -.60774E-2
MEAN_MOTION_DOT = -.1627875E-1
MEAN_MOTION_DDOT = 0

CCSDS_OMM_VERS = 2.0
CREATION_DATE  = 
ORIGINATOR     = 

OBJECT_NAME    = STARLINK-36433
OBJECT_ID      = 2026-012J
CENTER_NAME    = EARTH
REF_FRAME      = TEME
TIME_SYSTEM    = UTC
MEAN_ELEMENT_THEORY = SGP/SGP4

EPOCH          = 2026-01-31T12:00:01.999296
MEAN_MOTION    = 15.89767649
ECCENTRICITY   = .0001329
INCLINATION    = 42.9959
RA_OF_ASC_NODE = 169.4447
ARG_OF_PERICENTER = 277.9218
MEAN_ANOMALY   = 201.7034

EPHEMERIS_TYPE = 0
CLASSIFICATION_TYPE = U
NORAD_CAT_ID   = 67501
ELEMENT_SET_NO = 999
REV_AT_EPOCH   = 308
BSTAR          = -.60401E-2
MEAN_MOTION_DOT = -.1626783E-1
MEAN_MOTION_DDOT = 0

CCSDS_OMM_VERS = 2.0
CREATION_DATE  = 
ORIGINATOR     = 

OBJECT_NAME    = STARLINK-36554
OBJECT_ID      = 2026-012K
CENTER_NAME    = EARTH
REF_FRAME      = TEME
TIME_SYSTEM    = UTC
MEAN_ELEMENT_THEORY = SGP/SGP4

EPOCH          = 2026-01-28T18:49:29.593920
MEAN_MOTION    = 16.00907404
ECCENTRICITY   = .00123264
INCLINATION    = 42.9964
RA_OF_ASC_NODE = 186.3737
ARG_OF_PERICENTER = 300.6114
MEAN_ANOMALY   = 59.3549

EPHEMERIS_TYPE = 0
CLASSIFICATION_TYPE = U
NORAD_CAT_ID   = 67502
ELEMENT_SET_NO = 999
REV_AT_EPOCH   = 158
BSTAR          = .15774164E-2
MEAN_MOTION_DOT = .888078E-2
MEAN_MOTION_DDOT = .38383813E-3

CCSDS_OMM_VERS = 2.0
CREATION_DATE  = 
ORIGINATOR     = 

OBJECT_NAME    = STARLINK-36552
OBJECT_ID      = 2026-012L
CENTER_NAME    = EARTH
REF_FRAME      = TEME
TIME_SYSTEM    = UTC
MEAN_ELEMENT_THEORY = SGP/SGP4

EPOCH          = 2026-01-31T12:00:01.999296
MEAN_MOTION    = 15.89986062
ECCENTRICITY   = .0001282
INCLINATION    = 42.9960
RA_OF_ASC_NODE = 169.4266
ARG_OF_PERICENTER = 280.3173
MEAN_ANOMALY   = 206.3877

EPHEMERIS_TYPE = 0
CLASSIFICATION_TYPE = U
NORAD_CAT_ID   = 67503
ELEMENT_SET_NO = 999
REV_AT_EPOCH   = 308
BSTAR          = -.59728E-2
MEAN_MOTION_DOT = -.162683E-1
MEAN_MOTION_DDOT = 0

CCSDS_OMM_VERS = 2.0
CREATION_DATE  = 
ORIGINATOR     = 

OBJECT_NAME    = STARLINK-36512
OBJECT_ID      = 2026-012M
CENTER_NAME    = EARTH
REF_FRAME      = TEME
TIME_SYSTEM    = UTC
MEAN_ELEMENT_THEORY = SGP/SGP4

EPOCH          = 2026-01-31T12:00:01.999296
MEAN_MOTION    = 15.90116690
ECCENTRICITY   = .0001241
INCLINATION    = 42.9959
RA_OF_ASC_NODE = 169.4157
ARG_OF_PERICENTER = 280.9726
MEAN_ANOMALY   = 209.9681

EPHEMERIS_TYPE = 0
CLASSIFICATION_TYPE = U
NORAD_CAT_ID   = 67504
ELEMENT_SET_NO = 999
REV_AT_EPOCH   = 308
BSTAR          = -.5905E-2
MEAN_MOTION_DOT = -.1620167E-1
MEAN_MOTION_DDOT = 0

CCSDS_OMM_VERS = 2.0
CREATION_DATE  = 
ORIGINATOR     = 

OBJECT_NAME    = STARLINK-36545
OBJECT_ID      = 2026-012N
CENTER_NAME    = EARTH
REF_FRAME      = TEME
TIME_SYSTEM    = UTC
MEAN_ELEMENT_THEORY = SGP/SGP4

EPOCH          = 2026-01-31T12:00:01.999296
MEAN_MOTION    = 15.90187992
ECCENTRICITY   = .0001153
INCLINATION    = 42.9959
RA_OF_ASC_NODE = 169.4092
ARG_OF_PERICENTER = 280.3458
MEAN_ANOMALY   = 213.0698

EPHEMERIS_TYPE = 0
CLASSIFICATION_TYPE = U
NORAD_CAT_ID   = 67505
ELEMENT_SET_NO = 999
REV_AT_EPOCH   = 308
BSTAR          = -.58878E-2
MEAN_MOTION_DOT = -.1621172E-1
MEAN_MOTION_DDOT = 0

CCSDS_OMM_VERS = 2.0
CREATION_DATE  = 
ORIGINATOR     = 

OBJECT_NAME    = STARLINK-36553
OBJECT_ID      = 2026-012P
CENTER_NAME    = EARTH
REF_FRAME      = TEME
TIME_SYSTEM    = UTC
MEAN_ELEMENT_THEORY = SGP/SGP4

EPOCH          = 2026-01-31T12:00:01.999296
MEAN_MOTION    = 15.90291396
ECCENTRICITY   = .0001173
INCLINATION    = 42.9963
RA_OF_ASC_NODE = 169.4013
ARG_OF_PERICENTER = 279.0552
MEAN_ANOMALY   = 217.7947

EPHEMERIS_TYPE = 0
CLASSIFICATION_TYPE = U
NORAD_CAT_ID   = 67506
ELEMENT_SET_NO = 999
REV_AT_EPOCH   = 308
BSTAR          = -.58283E-2
MEAN_MOTION_DOT = -.1614407E-1
MEAN_MOTION_DDOT = 0

