STARLINK-36550          
1 67495U 26012C   26031.50002314 -.01636073  00000+0 -62803-2 0  9997
2 67495  42.9956 169.4979 0001137 278.2426 180.3674 15.89137306  3089
STARLINK-36534          
1 67496U 26012D   26031.50002314 -.01630263  00000+0 -61913-2 0  9994
2 67496  42.9960 169.4808 0001196 278.3259 187.0134 15.89335734  3020
STARLINK-36555          
1 67497U 26012E   26031.50002314 -.01645544  00000+0 -62906-2 0  9996
2 67497  42.9960 169.4904 0001392 283.3924 178.2172 15.89231592  3088
STARLINK-36081          
1 67498U 26012F   26031.50002314 -.01636614  00000+0 -61715-2 0  9992
2 67498  42.9960 169.4691 0001392 281.3156 188.6707 15.89482491  3026
STARLINK-36558          
1 67499U 26012G   26031.50002314 -.01623226  00000+0 -60957-2 0  9995
2 67499  42.9960 169.4632 0001230 281.8742 190.4931 15.89542153  3087
STARLINK-36557          
1 67500U 26012H   26031.50002314 -.01627875  00000+0 -60774-2 0  9999
2 67500  42.9960 169.4524 0001203 280.3758 195.8702 15.89664648  3080
STARLINK-36433          
1 67501U 26012J   26031.50002314 -.01626783  00000+0 -60401-2 0  9994
2 67501  42.9959 169.4447 0001329 277.9218 201.7034 15.89767649  3085
STARLINK-36554          
1 67502U 26012K   26028.78437030  .00888078  38384-3  15774-2 0  9995
2 67502  42.9964 186.3737 0012326 300.6114  59.3549 16.00907404  1580
STARLINK-36552          
1 67503U 26012L   26031.50002314 -.01626830  00000+0 -59728-2 0  9999
2 67503  42.9960 169.4266 0001282 280.3173 206.3877 15.89986062  3082
STARLINK-36512          
1 67504U 26012M   26031.50002314 -.01620167  00000+0 -59050-2 0  9995
2 67504  42.9959 169.4157 0001241 280.9726 209.9681 15.90116690  3081
STARLINK-36545          
1 67505U 26012N   26031.50002314 -.01621172  00000+0 -58878-2 0  9990
2 67505  42.9959 169.4092 0001153 280.3458 213.0698 15.90187992  3085
STARLINK-36553          
1 67506U 26012P   26031.50002314 -.01614407  00000+0 -58283-2 0  9994
2 67506  42.9963 169.4013 0001173 279.0552 217.7947 15.90291396  3088
